zip_code,latitude,longitude,city,state,county
96762,21.61095,-157.90205,Laie,HI,Honolulu
78364,27.421023,-97.882432,Kingsville,TX,Kleberg
78363,27.422876,-97.84068,Kingsville,TX,Kleberg
33834,27.601936,-81.85069,Bowling Green,FL,Hardee
33527,27.975742,-82.240415,Dover,FL,Hillsborough
33556,28.128688,-82.584113,Odessa,FL,Hillsborough
32768,28.698542,-81.569764,Plymouth,FL,Orange
34484,28.905906,-82.061193,Oxford,FL,Sumter
32702,29.059052,-81.581964,Altoona,FL,Lake
77406,29.50401,-95.919107,Richmond,TX,Fort Bend
77469,29.555831,-95.788479,Richmond,TX,Fort Bend
78934,29.69632,-96.592531,Columbus,TX,Colorado
32658,29.826139,-82.416024,La Crosse,FL,Alachua
32356,29.853852,-83.442125,Salem,FL,Taylor
77356,30.354902,-95.49833,Montgomery,TX,Montgomery
77316,30.358652,-95.685746,Montgomery,TX,Montgomery
32321,30.419284,-84.97804,Bristol,FL,Liberty
31646,30.434346,-82.165527,Saint George,GA,Charlton
76842,30.719628,-99.224184,Fredonia,TX,Mason
31792,30.825551,-83.950795,Thomasville,GA,Thomas
31757,30.853592,-83.888269,Thomasville,GA,Thomas
31758,30.868187,-83.927785,Thomasville,GA,Thomas
31799,30.880968,-83.885902,Thomasville,GA,Thomas
76534,30.887588,-97.418108,Holland,TX,Bell
76513,30.983551,-97.521848,Belton,TX,Bell
36476,31.260882,-86.444833,River Falls,AL,Covington
39653,31.469888,-90.891482,Meadville,MS,Franklin
31518,31.483312,-82.214987,Bristol,GA,Pierce
76538,31.559947,-97.845634,Jonesboro,TX,Coryell
76531,31.671399,-98.107585,Hamilton,TX,Hamilton
71454,31.671495,-92.660865,Montgomery,LA,Grant
71457,31.70988,-93.109141,Natchitoches,LA,Natchitoches
36784,31.745135,-87.769476,Thomasville,AL,Clarke
79769,31.746572,-102.566993,Odessa,TX,Ector
71458,31.747563,-93.079055,Natchitoches,LA,Natchitoches
79760,31.765163,-102.354346,Odessa,TX,Ector
79766,31.769701,-102.345518,Odessa,TX,Ector
79763,31.796965,-102.440113,Odessa,TX,Ector
79761,31.854178,-102.35022,Odessa,TX,Ector
79768,31.869142,-102.542944,Odessa,TX,Ector
79765,31.880682,-102.347889,Odessa,TX,Ector
79764,31.88967,-102.482783,Odessa,TX,Ector
79762,31.893906,-102.353839,Odessa,TX,Ector
71366,31.919051,-91.239631,Saint Joseph,LA,Tensas
31321,32.009967,-81.514752,Pembroke,GA,Bryan
71002,32.137843,-93.090606,Ashland,LA,Natchitoches
88005,32.167296,-106.897176,Las Cruces,NM,Dona Ana
75751,32.188097,-95.882391,Athens,TX,Henderson
88029,32.221057,-107.588344,Columbus,NM,Luna
36105,32.22558,-86.290586,Montgomery,AL,Montgomery
75762,32.226635,-95.390166,Flint,TX,Smith
71251,32.228472,-92.575528,Jonesboro,LA,Jackson
36102,32.233377,-86.208528,Montgomery,AL,Montgomery
88003,32.273778,-106.747176,Las Cruces,NM,Dona Ana
36116,32.285501,-86.228765,Montgomery,AL,Montgomery
79608,32.302132,-99.890737,Abilene,TX,Taylor
79606,32.303126,-99.908645,Abilene,TX,Taylor
88006,32.305193,-106.786259,Las Cruces,NM,Dona Ana
88011,32.324407,-106.668287,Las Cruces,NM,Dona Ana
88012,32.329638,-106.604677,Las Cruces,NM,Dona Ana
36108,32.340688,-86.37382,Montgomery,AL,Montgomery
36111,32.342438,-86.267317,Montgomery,AL,Montgomery
79602,32.342605,-99.694283,Abilene,TX,Taylor
79601,32.344457,-99.80213,Abilene,TX,Taylor
36103,32.346158,-86.287316,Montgomery,AL,Montgomery
36106,32.353338,-86.257517,Montgomery,AL,Montgomery
36101,32.356988,-86.257817,Montgomery,AL,Montgomery
36117,32.370048,-86.116486,Montgomery,AL,Montgomery
79605,32.370484,-99.814693,Abilene,TX,Taylor
36104,32.373788,-86.289182,Montgomery,AL,Montgomery
36112,32.374287,-86.345719,Montgomery,AL,Montgomery
36107,32.380587,-86.280718,Montgomery,AL,Montgomery
36113,32.384587,-86.303868,Montgomery,AL,Montgomery
36109,32.390547,-86.239667,Montgomery,AL,Montgomery
36114,32.403987,-86.253867,Montgomery,AL,Montgomery
36115,32.407587,-86.247417,Montgomery,AL,Montgomery
88001,32.41467,-106.854065,Las Cruces,NM,Dona Ana
88004,32.41815,-106.820075,Las Cruces,NM,Dona Ana
31903,32.41851,-84.934344,Columbus,GA,Muscogee
79603,32.418824,-99.880368,Abilene,TX,Taylor
79604,32.428796,-99.795167,Abilene,TX,Taylor
36110,32.441374,-86.253327,Montgomery,AL,Montgomery
79699,32.466474,-99.711665,Abilene,TX,Taylor
31901,32.472864,-84.97823,Columbus,GA,Muscogee
79698,32.475074,-99.73484,Abilene,TX,Taylor
31993,32.482142,-84.977131,Columbus,GA,Muscogee
31907,32.483084,-84.914976,Columbus,GA,Muscogee
31914,32.491005,-84.874123,Columbus,GA,Muscogee
31906,32.493455,-84.95328,Columbus,GA,Muscogee
71245,32.515626,-92.73593,Grambling,LA,Lincoln
75792,32.51931,-95.283799,Winona,TX,Smith
31902,32.524252,-84.955843,Columbus,GA,Muscogee
31904,32.534374,-84.99698,Columbus,GA,Muscogee
31908,32.534852,-84.906483,Columbus,GA,Muscogee
31909,32.542198,-84.920187,Columbus,GA,Muscogee
31030,32.560698,-83.854528,Fort Valley,GA,Peach
36874,32.580449,-85.217224,Salem,AL,Lee
75103,32.611471,-95.900705,Canton,TX,Van Zandt
39046,32.625298,-90.008601,Canton,MS,Madison
71003,32.68552,-93.033603,Athens,LA,Claiborne
87941,32.6957,-107.153465,Salem,NM,Dona Ana
29412,32.717954,-79.953725,Charleston,SC,Charleston
31811,32.746007,-84.934906,Hamilton,GA,Harris
75006,32.767268,-96.777626,Carrollton,TX,Dallas
30424,32.767634,-81.629062,Dover,GA,Screven
29401,32.780326,-79.940844,Charleston,SC,Charleston
29424,32.783076,-79.93701,Charleston,SC,Charleston
29425,32.786176,-79.94711,Charleston,SC,Charleston
88041,32.804493,-107.954524,Hanover,NM,Grant
29414,32.810035,-80.025928,Charleston,SC,Charleston
29407,32.812039,-80.093128,Charleston,SC,Charleston
29403,32.822391,-79.965464,Charleston,SC,Charleston
29402,32.84885,-79.85773,Charleston,SC,Charleston
29406,32.927344,-80.022009,Charleston,SC,Charleston
29836,32.951573,-81.348337,Martin,SC,Allendale
29492,32.96678,-79.852835,Charleston,SC,Berkeley
29810,32.990158,-81.287561,Allendale,SC,Allendale
75007,33.007436,-96.895893,Carrollton,TX,Denton
75010,33.029268,-96.901417,Carrollton,TX,Denton
31061,33.072279,-83.239008,Milledgeville,GA,Baldwin
31062,33.087138,-83.22492,Milledgeville,GA,Baldwin
35115,33.136658,-86.883586,Montevallo,AL,Shelby
29477,33.151503,-80.478782,Saint George,SC,Dorchester
29476,33.164201,-79.904182,Russellville,SC,Berkeley
75008,33.20743,-97.116282,Carrollton,TX,Denton
36251,33.234539,-85.847477,Ashland,AL,Clay
75429,33.237722,-95.90886,Commerce,TX,Hunt
75428,33.289045,-95.976965,Commerce,TX,Hunt
35447,33.289682,-88.117113,Carrollton,AL,Pickens
75485,33.361524,-96.467617,Westminster,TX,Collin
39702,33.429569,-88.460218,Columbus,MS,Lowndes
39703,33.484147,-88.283998,Columbus,MS,Lowndes
30238,33.494387,-84.379724,Jonesboro,GA,Clayton
30237,33.500697,-84.351273,Jonesboro,GA,Clayton
38967,33.514926,-89.628584,Winona,MS,Montgomery
39701,33.516258,-88.461318,Columbus,MS,Lowndes
39710,33.51633,-88.460083,Columbus,MS,Lowndes
38917,33.518425,-89.995978,Carrollton,MS,Carroll
30236,33.518505,-84.337523,Jonesboro,GA,Clayton
39704,33.548523,-88.379614,Columbus,MS,Lowndes
39705,33.550752,-88.486521,Columbus,MS,Lowndes
30117,33.566767,-85.078863,Carrollton,GA,Carroll
30118,33.571176,-85.09612,Carrollton,GA,Carroll
30116,33.604458,-85.04987,Carrollton,GA,Carroll
30119,33.618931,-85.073582,Carrollton,GA,Carroll
92683,33.640302,-117.769442,Westminster,CA,Orange
30054,33.670567,-83.874013,Oxford,GA,Newton
36203,33.725908,-85.899397,Oxford,AL,Calhoun
71677,33.747125,-91.490123,Winchester,AR,Drew
92596,33.752886,-116.055617,Winchester,CA,Riverside
39746,33.778926,-88.358784,Hamilton,MS,Monroe
71831,33.793524,-93.807007,Columbus,AR,Hempstead
29527,33.82352,-79.022331,Conway,SC,Horry
76308,33.863226,-98.582279,Wichita Falls,TX,Wichita
76302,33.863948,-98.47828,Wichita Falls,TX,Wichita
29526,33.868775,-78.948287,Conway,SC,Horry
79250,33.86948,-101.596234,Petersburg,TX,Hale
76310,33.87121,-98.576573,Wichita Falls,TX,Wichita
76307,33.877746,-98.494595,Wichita Falls,TX,Wichita
76309,33.892709,-98.499781,Wichita Falls,TX,Wichita
30605,33.923088,-83.364038,Athens,GA,Clarke
30602,33.925971,-83.365029,Athens,GA,Clarke
29528,33.935814,-78.919205,Conway,SC,Horry
30604,33.944339,-83.38908,Athens,GA,Clarke
30609,33.946364,-83.37743,Athens,GA,Clarke
30603,33.947587,-83.408897,Athens,GA,Clarke
30606,33.951348,-83.43064,Athens,GA,Clarke
30099,33.959535,-84.105011,Duluth,GA,Gwinnett
76301,33.959758,-98.48283,Wichita Falls,TX,Wichita
30098,33.960353,-84.037859,Duluth,GA,Gwinnett
35121,33.968171,-86.5535,Oneonta,AL,Blount
76305,33.973736,-98.512878,Wichita Falls,TX,Wichita
76306,33.979635,-98.696094,Wichita Falls,TX,Wichita
30096,33.984534,-84.152915,Duluth,GA,Gwinnett
30601,33.992902,-83.353697,Athens,GA,Clarke
30607,33.998267,-83.439569,Athens,GA,Clarke
30097,34.006019,-84.144674,Duluth,GA,Gwinnett
38921,34.007428,-90.115364,Charleston,MS,Tallahatchie
30095,34.025598,-84.13045,Duluth,GA,Gwinnett
93011,34.032383,-119.1343,Camarillo,CA,Ventura
35952,34.07097,-86.209599,Altoona,AL,Etowah
30599,34.130594,-83.587419,Commerce,GA,Jackson
35098,34.137678,-87.026554,Logan,AL,Cullman
92374,34.153575,-116.898232,Redlands,CA,San Bernardino
35570,34.167583,-87.994648,Hamilton,AL,Marion
30530,34.168274,-83.402226,Commerce,GA,Jackson
30529,34.169691,-83.570671,Commerce,GA,Jackson
30115,34.199345,-84.419935,Canton,GA,Cherokee
93012,34.204429,-118.974355,Camarillo,CA,Ventura
92373,34.2409,-116.889474,Redlands,CA,San Bernardino
30114,34.250547,-84.49093,Canton,GA,Cherokee
93010,34.307783,-119.084253,Camarillo,CA,Ventura
38655,34.330814,-89.483519,Oxford,MS,Lafayette
35653,34.444903,-87.854726,Russellville,AL,Franklin
35654,34.46752,-87.647762,Russellville,AL,Franklin
29627,34.492422,-82.569083,Belton,SC,Anderson
30597,34.527671,-83.980879,Dahlonega,GA,Lumpkin
30557,34.527955,-83.23208,Martin,GA,Stephens
30533,34.541371,-84.024387,Dahlonega,GA,Lumpkin
29693,34.696493,-83.153509,Westminster,SC,Oconee
28372,34.716443,-79.127951,Pembroke,NC,Robeson
35762,34.733964,-86.522913,Normal,AL,Madison
38603,34.741457,-89.163282,Ashland,MS,Benton
35611,34.764976,-87.103488,Athens,AL,Limestone
35612,34.774907,-87.030479,Athens,AL,Limestone
35613,34.831704,-86.886679,Athens,AL,Limestone
92375,34.839964,-115.967051,Redlands,CA,San Bernardino
35614,34.847364,-87.060696,Athens,AL,Limestone
29676,34.866881,-82.97658,Salem,SC,Oconee
79016,34.96539,-101.895894,Canyon,TX,Randall
29703,34.992612,-81.178712,Bowling Green,SC,York
79015,35.004998,-101.91008,Canyon,TX,Randall
38481,35.034741,-87.49336,Saint Joseph,TN,Lawrence
38469,35.078858,-87.433561,Loretto,TN,Lawrence
72033,35.105306,-92.354915,Conway,AR,Faulkner
29702,35.10953,-81.494193,Blacksburg,SC,Cherokee
74852,35.116442,-97.01139,Macomb,OK,Pottawatomie
72032,35.146446,-92.376466,Conway,AR,Faulkner
37398,35.146602,-86.102966,Winchester,TN,Franklin
37383,35.180503,-85.903522,Sewanee,TN,Franklin
37375,35.184313,-86.06546,Sewanee,TN,Franklin
28736,35.230342,-83.107379,Glenville,NC,Jackson
28526,35.255441,-77.364631,Dover,NC,Craven
28722,35.261201,-82.123534,Columbus,NC,Polk
37310,35.2637,-84.793619,Charleston,TN,Bradley
37144,35.285712,-86.639625,Petersburg,TN,Lincoln
72801,35.29465,-93.072885,Russellville,AR,Pope
72802,35.306683,-93.071219,Russellville,AR,Pope
72811,35.314678,-93.113308,Russellville,AR,Pope
38359,35.367207,-88.388143,Milledgeville,TN,Mcnairy
72933,35.387924,-93.95098,Charleston,AR,Franklin
72812,35.423102,-93.054388,Russellville,AR,Pope
37371,35.441376,-84.641623,Athens,TN,Mcminn
37303,35.457491,-84.63982,Athens,TN,Mcminn
28716,35.492743,-82.959555,Canton,NC,Haywood
72837,35.498142,-93.063411,Dover,AR,Pope
88426,35.52453,-103.264281,Logan,NM,Quay
37034,35.640617,-86.718225,Chapel Hill,TN,Marshall
27828,35.663061,-77.456086,Farmville,NC,Pitt
72404,35.779183,-90.766012,Jonesboro,AR,Craighead
27230,35.802758,-79.879711,Cedar Falls,NC,Randolph
72729,35.80515,-94.460202,Evansville,AR,Washington
72402,35.80881,-90.652887,Jonesboro,AR,Craighead
27962,35.818681,-76.609454,Plymouth,NC,Washington
72403,35.830541,-90.703915,Jonesboro,AR,Craighead
72401,35.835847,-90.623071,Jonesboro,AR,Craighead
27360,35.854539,-80.124764,Thomasville,NC,Davidson
73043,35.858554,-98.421836,Greenfield,OK,Blaine
27361,35.882943,-80.275963,Thomasville,NC,Davidson
74465,35.900074,-95.040008,Tahlequah,OK,Cherokee
74464,35.911304,-94.911331,Tahlequah,OK,Cherokee
27516,35.946263,-79.136862,Chapel Hill,NC,Orange
27840,35.963174,-77.223554,Hamilton,NC,Martin
73734,35.982319,-97.912342,Dover,OK,Kingfisher
27514,36.004647,-79.054475,Chapel Hill,NC,Orange
27515,36.05251,-79.107692,Chapel Hill,NC,Orange
72565,36.064329,-91.944673,Oxford,AR,Izard
73724,36.09281,-98.577618,Canton,OK,Blaine
63853,36.092984,-89.831121,Holland,MO,Pemiscot
37760,36.09903,-83.457262,Jefferson City,TN,Jefferson
38230,36.213708,-88.781253,Greenfield,TN,Weakley
37860,36.244307,-83.185535,Russellville,TN,Hamblen
38564,36.278335,-85.748452,Granville,TN,Jackson
38238,36.282357,-88.738132,Martin,TN,Weakley
28635,36.308091,-81.116941,Hays,NC,Wilkes
93927,36.323971,-121.324308,Greenfield,CA,Monterey
38237,36.324103,-88.782561,Martin,TN,Weakley
27565,36.348168,-78.65313,Oxford,NC,Granville
72576,36.425836,-91.699502,Salem,AR,Fulton
93955,36.429013,-121.497712,Seaside,CA,Monterey
27820,36.450554,-77.452452,Conway,NC,Northampton
27053,36.490659,-80.463069,Westfield,NC,Surry
37058,36.494203,-87.878742,Dover,TN,Stewart
37621,36.504158,-82.26446,Bristol,TN,Sullivan
37620,36.531703,-82.192545,Bristol,TN,Sullivan
42076,36.562065,-88.150463,New Concord,KY,Calloway
24201,36.613815,-82.176238,Bristol,VA,Bristol
24202,36.621571,-82.167633,Bristol,VA,Bristol
42153,36.678703,-86.038273,Holland,KY,Allen
23950,36.690021,-78.232633,La Crosse,VA,Mecklenburg
42032,36.732689,-89.1019,Columbus,KY,Hickman
24203,36.761613,-81.968712,Bristol,VA,Bristol
23702,36.804098,-76.329263,Portsmouth,VA,Portsmouth City
23701,36.811498,-76.367715,Portsmouth,VA,Portsmouth City
23704,36.824298,-76.315663,Portsmouth,VA,Portsmouth City
74339,36.829945,-94.876086,Commerce,OK,Ottawa
23707,36.837153,-76.347314,Portsmouth,VA,Portsmouth City
42276,36.845273,-86.882321,Russellville,KY,Logan
42266,36.864233,-87.409139,Pembroke,KY,Christian
23703,36.867948,-76.380766,Portsmouth,VA,Portsmouth City
23705,36.868553,-76.355165,Portsmouth,VA,Portsmouth City
63834,36.885612,-89.296639,Charleston,MO,Mississippi
42104,36.887214,-86.453985,Bowling Green,KY,Warren
42102,36.922292,-86.387046,Bowling Green,KY,Warren
42103,36.950002,-86.358413,Bowling Green,KY,Warren
23314,36.956505,-76.542783,Carrollton,VA,Isle Of Wight
86022,36.96649,-112.524696,Fredonia,AZ,Coconino
65588,36.998455,-91.331701,Winona,MO,Shannon
42101,37.017407,-86.451752,Bowling Green,KY,Warren
67954,37.081137,-101.60469,Rolla,KS,Morton
84790,37.083098,-113.558068,Saint George,UT,Washington
65702,37.100803,-92.535335,Macomb,MO,Wright
24141,37.119732,-80.556541,Radford,VA,Radford
24143,37.122583,-80.562913,Radford,VA,Radford
42324,37.137789,-87.004852,Belton,KY,Muhlenberg
24142,37.138733,-80.54802,Radford,VA,Radford
63742,37.156982,-89.448389,Commerce,MO,Scott
66725,37.169887,-94.889857,Columbus,KS,Cherokee
67831,37.171946,-99.769576,Ashland,KS,Clark
24062,37.174227,-80.395698,Blacksburg,VA,Montgomery
24061,37.179115,-80.351482,Blacksburg,VA,Montgomery
67356,37.18919,-95.242611,Oswego,KS,Labette
23805,37.1922,-77.389641,Petersburg,VA,Petersburg City
42411,37.201173,-87.988003,Fredonia,KY,Caldwell
23804,37.204765,-77.392784,Petersburg,VA,Petersburg City
23803,37.21713,-77.389253,Petersburg,VA,Petersburg City
67119,37.231595,-97.212224,Oxford,KS,Sumner
24060,37.256283,-80.43473,Blacksburg,VA,Montgomery
42078,37.269417,-88.329698,Salem,KY,Livingston
63785,37.278096,-89.806091,Whitewater,MO,Cape Girardeau
23901,37.280694,-78.421284,Farmville,VA,Prince Edward
63703,37.284366,-89.571485,Cape Girardeau,MO,Cape Girardeau
24153,37.28814,-80.067762,Salem,VA,Salem
24155,37.288384,-80.067062,Salem,VA,Salem
23909,37.301574,-78.394944,Farmville,VA,Prince Edward
84770,37.306845,-113.355421,Saint George,UT,Washington
84771,37.309231,-113.476182,Saint George,UT,Washington
63701,37.341398,-89.611016,Cape Girardeau,MO,Cape Girardeau
63702,37.350624,-89.509405,Cape Girardeau,MO,Cape Girardeau
24136,37.35623,-80.690234,Pembroke,VA,Giles
63705,37.366166,-89.643941,Cape Girardeau,MO,Cape Girardeau
94067,37.381144,-122.334825,San Bruno,CA,San Mateo
23297,37.389721,-77.561266,Richmond,VA,Chesterfield
23237,37.400822,-77.471206,Richmond,VA,Chesterfield
65661,37.406208,-93.895184,Greenfield,MO,Dade
62952,37.422793,-89.266574,Jonesboro,IL,Union
23234,37.43732,-77.478825,Richmond,VA,Chesterfield
24712,37.452346,-81.00916,Athens,WV,Mercer
23231,37.457072,-77.307326,Richmond,VA,Henrico
23236,37.466359,-77.590818,Richmond,VA,Chesterfield
23235,37.494147,-77.556501,Richmond,VA,Chesterfield
23224,37.497796,-77.46726,Richmond,VA,Richmond City
23250,37.507498,-77.332916,Richmond,VA,Henrico
23225,37.519396,-77.500757,Richmond,VA,Richmond City
23232,37.520187,-77.408359,Richmond,VA,Richmond City
23218,37.524246,-77.493157,Richmond,VA,Richmond City
66710,37.525023,-95.661801,Altoona,KS,Wilson
23242,37.531296,-77.416103,Richmond,VA,Henrico
65632,37.532463,-92.72801,Conway,MO,Laclede
23223,37.533246,-77.431054,Richmond,VA,Richmond City
23298,37.540646,-77.431555,Richmond,VA,Richmond City
23219,37.541696,-77.439204,Richmond,VA,Richmond City
23284,37.549446,-77.451155,Richmond,VA,Richmond City
23220,37.552746,-77.456602,Richmond,VA,Richmond City
23221,37.553196,-77.489706,Richmond,VA,Richmond City
23266,37.567896,-77.528308,Richmond,VA,Richmond City
23222,37.568861,-77.428004,Richmond,VA,Richmond City
66736,37.571672,-95.748418,Fredonia,KS,Wilson
66733,37.580055,-95.29892,Erie,KS,Neosho
23226,37.587223,-77.518407,Richmond,VA,Henrico
23230,37.592095,-77.495206,Richmond,VA,Henrico
23229,37.595695,-77.570359,Richmond,VA,Henrico
41649,37.600698,-82.78595,Martin,KY,Floyd
24839,37.603344,-81.53998,Hanover,WV,Wyoming
23233,37.615276,-77.576641,Richmond,VA,Henrico
94066,37.623159,-122.436034,San Bruno,CA,San Mateo
23227,37.6247,-77.435149,Richmond,VA,Henrico
23228,37.624988,-77.49592,Richmond,VA,Henrico
23294,37.628657,-77.542871,Richmond,VA,Henrico
67025,37.633711,-97.73513,Cheney,KS,Sedgwick
23280,37.637622,-77.46836,Richmond,VA,Henrico
65560,37.640709,-91.53927,Salem,MO,Dent
40037,37.647483,-85.417876,Loretto,KY,Marion
40476,37.716443,-84.299699,Richmond,KY,Madison
23238,37.733844,-77.888082,Richmond,VA,Goochland
23069,37.735448,-77.337944,Hanover,VA,Hanover
23005,37.754912,-77.480128,Ashland,VA,Hanover
40475,37.764867,-84.296913,Richmond,KY,Madison
94516,37.777208,-121.955399,Canyon,CA,Contra Costa
25601,37.865036,-82.025158,Logan,WV,Logan
65409,37.876191,-91.777182,Rolla,MO,Phelps
65401,37.898204,-91.797641,Rolla,MO,Phelps
94804,37.925174,-122.344381,Richmond,CA,Contra Costa
94805,37.929123,-122.30093,Richmond,CA,Contra Costa
94801,37.947523,-122.384032,Richmond,CA,Contra Costa
47713,37.95219,-87.547564,Evansville,IN,Vanderburgh
47714,37.959092,-87.519682,Evansville,IN,Vanderburgh
47750,37.962292,-87.505512,Evansville,IN,Vanderburgh
65402,37.963208,-91.817936,Rolla,MO,Phelps
40391,37.964922,-84.160724,Winchester,KY,Clark
40392,37.968496,-84.157766,Winchester,KY,Clark
47722,37.970192,-87.542014,Evansville,IN,Vanderburgh
47708,37.976692,-87.564842,Evansville,IN,Vanderburgh
47744,37.977492,-87.597316,Evansville,IN,Vanderburgh
67154,37.977983,-97.088361,Whitewater,KS,Butler
47721,37.978035,-87.600791,Evansville,IN,Vanderburgh
66853,37.980393,-96.199508,Hamilton,KS,Greenwood
47712,37.984112,-87.580057,Evansville,IN,Vanderburgh
47715,37.984202,-87.489212,Evansville,IN,Vanderburgh
62856,37.994296,-88.941665,Logan,IL,Franklin
47701,37.997128,-87.574963,Evansville,IN,Vanderburgh
22427,38.008401,-77.260353,Bowling Green,VA,Caroline
22428,38.014536,-77.355902,Bowling Green,VA,Caroline
47710,38.029714,-87.569024,Evansville,IN,Vanderburgh
47727,38.031942,-87.538915,Evansville,IN,Vanderburgh
25942,38.041293,-81.064784,Winona,WV,Fayette
47725,38.045237,-87.547704,Evansville,IN,Vanderburgh
47720,38.059937,-87.637962,Evansville,IN,Vanderburgh
47711,38.061732,-87.554802,Evansville,IN,Vanderburgh
22509,38.078932,-77.04851,Loretto,VA,Essex
81004,38.087325,-104.822451,Pueblo,CO,Pueblo
62242,38.10828,-89.943684,Evansville,IL,Randolph
81006,38.113259,-104.52127,Pueblo,CO,Pueblo
81003,38.121031,-104.763851,Pueblo,CO,Pueblo
81002,38.128626,-104.552299,Pueblo,CO,Pueblo
81005,38.152191,-104.841328,Pueblo,CO,Pueblo
25136,38.172523,-81.322175,Montgomery,WV,Fayette
25315,38.235149,-81.553608,Charleston,WV,Kanawha
47541,38.249617,-87.007734,Holland,IN,Dubois
25321,38.296818,-81.554655,Charleston,WV,Kanawha
25304,38.305728,-81.595903,Charleston,WV,Kanawha
25309,38.310767,-81.756808,Charleston,WV,Kanawha
25306,38.317499,-81.527433,Charleston,WV,Kanawha
20619,38.324994,-76.637383,California,MD,Saint Marys
25301,38.328948,-81.605094,Charleston,WV,Kanawha
25314,38.32925,-81.665927,Charleston,WV,Kanawha
25317,38.335647,-81.613794,Charleston,WV,Kanawha
25305,38.335798,-81.612344,Charleston,WV,Kanawha
81001,38.344117,-104.427776,Pueblo,CO,Pueblo
22812,38.345632,-78.854597,Bridgewater,VA,Rockingham
25303,38.352946,-81.658246,Charleston,WV,Kanawha
25389,38.354041,-81.639389,Charleston,WV,Kanawha
67444,38.362194,-98.15843,Geneseo,KS,Rice
41105,38.370285,-82.694757,Ashland,KY,Boyd
25311,38.371957,-81.632845,Charleston,WV,Kanawha
81007,38.387004,-104.779156,Pueblo,CO,Pueblo
67428,38.392631,-97.426953,Canton,KS,Mcpherson
25302,38.401498,-81.584087,Charleston,WV,Kanawha
81008,38.402934,-104.644423,Pueblo,CO,Pueblo
25313,38.414156,-81.758172,Charleston,WV,Kanawha
41102,38.421818,-82.717284,Ashland,KY,Boyd
41101,38.43296,-82.693914,Ashland,KY,Boyd
66080,38.436338,-95.312506,Richmond,KS,Franklin
47527,38.439461,-86.777335,Dubois,IN,Dubois
25312,38.455865,-81.637823,Charleston,WV,Kanawha
47567,38.459787,-87.298174,Petersburg,IN,Pike
65074,38.485106,-92.409339,Russellville,MO,Cole
95669,38.486559,-120.86184,Plymouth,CA,Amador
65101,38.494029,-92.165194,Jefferson City,MO,Cole
62410,38.527638,-87.706344,Allendale,IL,Wabash
65102,38.530921,-92.249342,Jefferson City,MO,Cole
67548,38.531867,-99.300546,La Crosse,KS,Rush
25322,38.534661,-81.56035,Charleston,WV,Kanawha
25320,38.542798,-81.633378,Charleston,WV,Kanawha
65109,38.550219,-92.299267,Jefferson City,MO,Cole
47167,38.608621,-86.079404,Salem,IN,Washington
65018,38.625055,-92.550973,California,MO,Moniteau
62881,38.643793,-88.974839,Salem,IL,Marion
41008,38.663866,-85.098906,Carrollton,KY,Carroll
47558,38.697289,-87.091762,Montgomery,IN,Daviess
89022,38.702281,-116.310045,Manhattan,NV,Nye
41034,38.707093,-83.904101,Dover,KY,Mason
47591,38.707231,-87.417306,Vincennes,IN,Knox
21654,38.710783,-76.125184,Oxford,MD,Talbot
47243,38.734755,-85.376804,Hanover,IN,Jefferson
64061,38.744077,-93.817661,Kingsville,MO,Johnson
65010,38.781337,-92.265908,Ashland,MO,Boone
64012,38.784041,-94.532397,Belton,MO,Cass
45662,38.793214,-82.930576,Portsmouth,OH,Scioto
81527,38.814573,-108.604695,Whitewater,CO,Mesa
22652,38.840715,-78.427584,Fort Valley,VA,Shenandoah
45168,38.84798,-83.767404,Russellville,OH,Brown
67601,38.878202,-99.334803,Hays,KS,Ellis
41007,38.905563,-84.317079,California,KY,Campbell
67410,38.9111,-97.195283,Abilene,KS,Dickinson
45697,38.9163,-83.580733,Winchester,OH,Adams
67764,38.921702,-101.094305,Winona,KS,Logan
26351,38.940946,-80.83133,Glenville,WV,Gilmer
66619,38.953556,-95.723636,Topeka,KS,Shawnee
66420,38.964532,-95.917186,Dover,KS,Shawnee
66609,38.96474,-95.615101,Topeka,KS,Shawnee
21098,38.974203,-76.594942,Hanover,MD,Anne Arundel
66610,38.975466,-95.817109,Topeka,KS,Shawnee
66601,38.988075,-95.780662,Topeka,KS,Shawnee
26847,38.990838,-79.129301,Petersburg,WV,Grant
66605,39.01115,-95.592088,Topeka,KS,Shawnee
66611,39.0152,-95.695559,Topeka,KS,Shawnee
66614,39.017305,-95.779995,Topeka,KS,Shawnee
64076,39.020995,-93.820021,Odessa,MO,Lafayette
41080,39.039096,-84.837832,Petersburg,KY,Boone
66612,39.04045,-95.679459,Topeka,KS,Shawnee
66620,39.042939,-95.769657,Topeka,KS,Shawnee
66607,39.044349,-95.630107,Topeka,KS,Shawnee
66604,39.045716,-95.758369,Topeka,KS,Shawnee
66603,39.05215,-95.675758,Topeka,KS,Shawnee
66615,39.055155,-95.854169,Topeka,KS,Shawnee
21076,39.057694,-76.615557,Hanover,MD,Anne Arundel
66606,39.059349,-95.72161,Topeka,KS,Shawnee
66616,39.065477,-95.626357,Topeka,KS,Shawnee
66608,39.080299,-95.645607,Topeka,KS,Shawnee
64022,39.100752,-93.795752,Dover,MO,Lafayette
19903,39.10868,-75.448023,Dover,DE,Kent
20159,39.133855,-77.662072,Hamilton,VA,Loudoun
20158,39.138314,-77.657328,Hamilton,VA,Loudoun
66618,39.139907,-95.801975,Topeka,KS,Shawnee
22602,39.150074,-78.268988,Winchester,VA,Frederick
66617,39.15275,-95.793795,Topeka,KS,Shawnee
19901,39.156376,-75.49549,Dover,DE,Kent
19904,39.160542,-75.597381,Dover,DE,Kent
22604,39.167603,-78.168643,Winchester,VA,Winchester City
22601,39.169668,-78.16856,Winchester,VA,Winchester City
47201,39.191447,-85.891338,Columbus,IN,Bartholomew
47202,39.192972,-85.885168,Columbus,IN,Bartholomew
66506,39.196032,-96.583875,Manhattan,KS,Riley
26421,39.198501,-81.068913,Pullman,WV,Ritchie
45165,39.198813,-83.607858,Greenfield,OH,Highland
66502,39.209375,-96.564589,Manhattan,KS,Riley
66097,39.2314,-95.285222,Winchester,KS,Jefferson
22638,39.236944,-78.288465,Winchester,VA,Frederick
47203,39.241129,-85.827439,Columbus,IN,Bartholomew
26426,39.245329,-80.49102,Salem,WV,Harrison
66503,39.245797,-96.633596,Manhattan,KS,Riley
22603,39.263975,-78.198932,Winchester,VA,Frederick
26332,39.285204,-80.385344,Bristol,WV,Harrison
45123,39.288414,-83.583223,Greenfield,OH,Highland
66535,39.28971,-96.435394,Saint George,KS,Pottawatomie
66505,39.304937,-96.675295,Manhattan,KS,Riley
63334,39.316369,-91.174859,Bowling Green,MO,Pike
45701,39.339279,-82.013803,Athens,OH,Athens
64085,39.341906,-93.984387,Richmond,MO,Ray
45015,39.349361,-84.537563,Hamilton,OH,Butler
62044,39.355962,-90.244338,Greenfield,IL,Greene
62016,39.380638,-90.399251,Carrollton,IL,Greene
64633,39.405818,-93.425127,Carrollton,MO,Carroll
62474,39.407315,-87.949053,Westfield,IL,Clark
21234,39.413106,-76.530044,Parkville,MD,Baltimore
47833,39.415414,-87.065524,Bowling Green,IN,Clay
8225,39.421922,-74.572227,Northfield,NJ,Atlantic
45011,39.425137,-84.472925,Hamilton,OH,Butler
45013,39.436146,-84.618498,Hamilton,OH,Butler
45012,39.440956,-84.575746,Hamilton,OH,Butler
21087,39.445257,-76.421783,Kingsville,MD,Baltimore
45056,39.479227,-84.68575,Oxford,OH,Butler
64439,39.487839,-94.763263,Dearborn,MO,Platte
61920,39.499622,-88.160348,Charleston,IL,Coles
19730,39.51251,-75.627281,Odessa,DE,New Castle
43138,39.52535,-82.437424,Logan,OH,Hocking
21157,39.564201,-76.980701,Westminster,MD,Carroll
8079,39.587729,-75.439362,Salem,NJ,Salem
43142,39.588319,-83.583292,Milledgeville,OH,Fayette
21158,39.606981,-77.029403,Westminster,MD,Carroll
62694,39.62663,-90.466389,Winchester,IL,Scott
26534,39.62764,-79.942937,Granville,WV,Monongalia
21532,39.64206,-78.912502,Frostburg,MD,Allegany
67646,39.664328,-99.568879,Logan,KS,Phillips
21727,39.675397,-77.336732,Emmitsburg,MD,Frederick
64502,39.676333,-94.857364,Saint Joseph,MO,Buchanan
64504,39.687683,-94.899901,Saint Joseph,MO,Buchanan
66544,39.689591,-96.495257,Vermillion,KS,Marshall
64507,39.707229,-94.725917,Saint Joseph,MO,Buchanan
64644,39.719176,-94.002251,Hamilton,MO,Caldwell
64501,39.757494,-94.836598,Saint Joseph,MO,Buchanan
64503,39.759092,-94.800879,Saint Joseph,MO,Buchanan
66548,39.763462,-96.701387,Waterville,KS,Marshall
17329,39.766883,-76.877706,Glenville,PA,York
17332,39.775037,-76.735116,Hanover,PA,York
66956,39.787529,-98.20595,Mankato,KS,Jewell
64659,39.795407,-93.295805,Meadville,MO,Linn
64505,39.795418,-94.823192,Saint Joseph,MO,Buchanan
80035,39.80797,-104.407918,Westminster,CO,Adams
46140,39.821787,-85.775403,Greenfield,IN,Hancock
46175,39.822491,-86.973306,Russellville,IN,Putnam
43217,39.827675,-82.934198,Columbus,OH,Franklin
64506,39.836488,-94.81526,Saint Joseph,MO,Buchanan
47374,39.84081,-85.010442,Richmond,IN,Wayne
17325,39.840922,-77.226591,Gettysburg,PA,Adams
19363,39.849721,-75.957276,Oxford,PA,Chester
47375,39.860417,-85.015983,Richmond,IN,Wayne
66945,39.867079,-96.896534,Hanover,KS,Washington
43207,39.86905,-82.958539,Columbus,OH,Franklin
64688,39.871946,-93.397106,Wheeling,MO,Livingston
80030,39.872535,-105.034487,Westminster,CO,Adams
80031,39.87529,-105.034487,Westminster,CO,Adams
43215,39.891745,-82.877131,Columbus,OH,Franklin
17326,39.8948,-77.213493,Gettysburg,PA,Adams
43210,39.914038,-82.832558,Columbus,OH,Franklin
43232,39.922663,-82.85664,Columbus,OH,Franklin
43227,39.922863,-82.858048,Columbus,OH,Franklin
15460,39.932084,-79.65217,Martin,PA,Fayette
17364,39.933775,-76.905317,Thomasville,PA,York
17331,39.935502,-76.672739,Hanover,PA,York
62612,39.938647,-90.079241,Ashland,IL,Cass
62613,39.950205,-89.683294,Athens,IL,Menard
43201,39.969036,-83.011389,Columbus,OH,Franklin
43213,39.972734,-82.832887,Columbus,OH,Franklin
62675,39.972828,-89.807192,Petersburg,IL,Menard
17333,39.972985,-76.687826,Hanover,PA,York
17315,40.004544,-76.884956,Dover,PA,York
84653,40.011274,-111.599759,Salem,UT,Utah
43762,40.024342,-81.767017,New Concord,OH,Muskingum
43219,40.032615,-82.910251,Columbus,OH,Franklin
43230,40.034713,-82.872611,Columbus,OH,Franklin
43085,40.040113,-82.897222,Columbus,OH,Franklin
43023,40.048971,-82.539941,Granville,OH,Licking
8022,40.049355,-74.702475,Columbus,NJ,Burlington
80516,40.062204,-104.923481,Erie,CO,Weld
15419,40.068921,-79.873163,California,PA,Washington
43224,40.080339,-82.928604,Columbus,OH,Franklin
43231,40.084463,-82.933811,Columbus,OH,Franklin
43229,40.095713,-82.962671,Columbus,OH,Franklin
46074,40.097028,-86.125716,Westfield,IN,Hamilton
26003,40.102703,-80.647599,Wheeling,WV,Ohio
63435,40.107512,-91.705811,Canton,MO,Lewis
43235,40.108836,-82.974204,Columbus,OH,Franklin
45328,40.114729,-84.493439,Gettysburg,OH,Darke
19007,40.115859,-74.853608,Bristol,PA,Bucks
61857,40.116478,-87.844689,Muncie,IL,Vermilion
68433,40.131136,-95.659484,Salem,NE,Richardson
43236,40.135711,-83.007626,Columbus,OH,Franklin
47302,40.142124,-85.389874,Muncie,IN,Delaware
61873,40.144962,-88.072851,Saint Joseph,IL,Champaign
47394,40.159854,-84.984682,Winchester,IN,Randolph
47307,40.162093,-85.442772,Muncie,IN,Delaware
63501,40.165717,-92.609514,Kirksville,MO,Adair
47306,40.202293,-85.408221,Muncie,IN,Delaware
80651,40.217382,-104.712141,Platteville,CO,Weld
47308,40.227938,-85.396685,Muncie,IN,Delaware
47304,40.238544,-85.484122,Muncie,IN,Delaware
47305,40.247979,-85.433223,Muncie,IN,Delaware
68967,40.254078,-99.637884,Oxford,NE,Furnas
47303,40.280332,-85.383447,Muncie,IN,Delaware
68424,40.291721,-97.029005,Plymouth,NE,Jefferson
81638,40.297591,-107.665731,Hamilton,CO,Moffat
62367,40.323553,-90.967177,Plymouth,IL,Hancock
43022,40.338527,-82.348673,Gambier,OH,Knox
61567,40.344336,-89.885895,Topeka,IL,Mason
43944,40.441964,-80.791768,Richmond,OH,Jefferson
61520,40.445611,-90.151535,Canton,IL,Fulton
46938,40.44673,-85.650398,Jonesboro,IN,Grant
61455,40.459904,-90.660675,Macomb,IL,Mcdonough
62341,40.475714,-91.271002,Hamilton,IL,Hancock
64420,40.478118,-94.423294,Allendale,MO,Worth
16601,40.489433,-78.349874,Altoona,PA,Blair
44622,40.492563,-81.47911,Dover,OH,Tuscarawas
16603,40.50177,-78.410035,Altoona,PA,Blair
16602,40.508219,-78.382635,Altoona,PA,Blair
61790,40.51032,-88.99803,Normal,IL,Mclean
15940,40.517191,-78.61487,Loretto,PA,Cambria
61761,40.530375,-88.7989,Normal,IL,Mclean
47971,40.533538,-87.259375,Oxford,IN,Benton
17029,40.550937,-77.626095,Granville,PA,Mifflin
95521,40.564495,-123.935891,Arcata,CA,Humboldt
44615,40.571861,-81.064859,Carrollton,OH,Carroll
16669,40.583226,-78.073445,Petersburg,PA,Huntingdon
8807,40.598702,-74.607518,Bridgewater,NJ,Somerset
15701,40.621272,-79.080422,Indiana,PA,Indiana
15705,40.640031,-79.129445,Indiana,PA,Indiana
7090,40.652851,-74.346764,Westfield,NJ,Union
7091,40.665651,-74.299692,Westfield,NJ,Union
17921,40.692886,-76.303085,Ashland,PA,Schuylkill
15027,40.699515,-80.264683,Conway,PA,Beaver
68861,40.72996,-99.283748,Odessa,NE,Buffalo
44706,40.741553,-81.430161,Canton,OH,Stark
44707,40.759808,-81.350034,Canton,OH,Stark
44730,40.770507,-81.26598,Canton,OH,Stark
44701,40.782408,-81.371185,Canton,OH,Stark
44750,40.784646,-81.418943,Canton,OH,Stark
44710,40.789508,-81.426988,Canton,OH,Stark
44704,40.799158,-81.345934,Canton,OH,Stark
16802,40.799672,-77.862339,University Park,PA,Centre
44702,40.800108,-81.379535,Canton,OH,Stark
44709,40.80488,-81.387905,Canton,OH,Stark
44703,40.808808,-81.379886,Canton,OH,Stark
44711,40.811809,-81.368284,Canton,OH,Stark
7863,40.820044,-74.941392,Oxford,NJ,Warren
44708,40.825707,-81.436938,Canton,OH,Stark
44805,40.826965,-82.296131,Ashland,OH,Ashland
44493,40.828584,-80.896714,Winona,OH,Columbiana
44705,40.830092,-81.330583,Canton,OH,Stark
44714,40.834457,-81.360834,Canton,OH,Stark
44718,40.846532,-81.440791,Canton,OH,Stark
44865,40.849371,-82.57178,Plymouth,OH,Richland
44760,40.853958,-81.42778,Canton,OH,Stark
52649,40.857375,-91.610895,Salem,IA,Henry
44460,40.862743,-80.763459,Salem,OH,Columbiana
7802,40.867331,-74.578269,Dover,NJ,Morris
95518,40.881383,-123.984232,Arcata,CA,Humboldt
44721,40.891608,-81.318381,Canton,OH,Stark
44720,40.895607,-81.433036,Canton,OH,Stark
44767,40.895721,-81.424552,Canton,OH,Stark
7801,40.917598,-74.546651,Dover,NJ,Morris
61462,40.924563,-90.618313,Monmouth,IL,Warren
44454,40.929,-80.54758,Petersburg,OH,Mahoning
17815,41.005609,-76.430563,Bloomsburg,PA,Columbia
7401,41.017446,-74.062774,Allendale,NJ,Bergen
46912,41.040988,-86.206925,Athens,IN,Fulton
68003,41.102696,-96.577634,Ashland,NE,Saunders
44883,41.12453,-83.144773,Tiffin,OH,Seneca
15740,41.141079,-78.962877,Frostburg,PA,Jefferson
50116,41.189953,-92.95896,Hamilton,IA,Marion
17752,41.214561,-76.856502,Montgomery,PA,Lycoming
61326,41.250055,-89.24284,Granville,IL,Putnam
50837,41.258885,-94.666868,Bridgewater,IA,Adair
52595,41.286383,-92.618357,University Park,IA,Mahaska
18651,41.28871,-75.98764,Plymouth,PA,Luzerne
50849,41.299977,-94.456404,Greenfield,IA,Adair
44067,41.306454,-81.54079,Northfield,OH,Summit
16124,41.334133,-80.262473,Fredonia,PA,Mercer
46563,41.352997,-86.301486,Plymouth,IN,Marshall
43402,41.376449,-83.613714,Bowling Green,OH,Wood
17776,41.37857,-77.331293,Waterville,PA,Lycoming
43403,41.39235,-83.648996,Bowling Green,OH,Wood
46348,41.394105,-86.806742,La Crosse,IN,La Porte
12549,41.405901,-74.255717,Montgomery,NY,Orange
6478,41.432583,-73.138379,Oxford,CT,New Haven
61323,41.436173,-89.396006,Dover,IL,Bureau
61254,41.437746,-90.158163,Geneseo,IL,Henry
60442,41.491903,-87.979113,Manhattan,IL,Will
43566,41.513751,-83.765287,Waterville,OH,Lucas
6752,41.520312,-73.363875,Bridgewater,CT,Litchfield
6420,41.527441,-72.269141,Salem,CT,New London
68602,41.53808,-97.541795,Columbus,NE,Platte
68601,41.542962,-97.376314,Columbus,NE,Platte
43445,41.569398,-83.311577,Martin,OH,Ottawa
46742,41.572304,-84.897465,Hamilton,IN,Steuben
46571,41.578904,-85.540055,Topeka,IN,Lagrange
2871,41.58523,-71.264197,Portsmouth,RI,Newport
16335,41.611599,-80.114891,Meadville,PA,Crawford
43528,41.628501,-83.751138,Holland,OH,Lucas
60543,41.631012,-88.420476,Oswego,IL,Kendall
17724,41.639449,-76.84143,Canton,PA,Bradford
84322,41.641189,-111.896571,Logan,UT,Cache
60538,41.643752,-88.457951,Montgomery,IL,Kendall
6350,41.644546,-72.06769,Hanover,CT,New London
50009,41.65097,-93.4685,Altoona,IA,Polk
51546,41.657856,-95.786047,Logan,IA,Harrison
6782,41.65873,-73.044364,Plymouth,CT,Litchfield
16388,41.659552,-80.157553,Meadville,PA,Crawford
61250,41.667507,-90.098292,Erie,IL,Whiteside
2809,41.678378,-71.2704,Bristol,RI,Bristol
6010,41.681198,-72.939577,Bristol,CT,Hartford
84323,41.684253,-111.783783,Logan,UT,Cache
60512,41.698414,-88.427873,Bristol,IL,Kendall
52322,41.700994,-91.730339,Oxford,IA,Johnson
52340,41.701791,-91.677347,Tiffin,IA,Johnson
6778,41.707722,-73.108997,Northfield,CT,Litchfield
51565,41.708156,-95.44989,Portsmouth,IA,Shelby
46507,41.712983,-85.824845,Bristol,IN,Elkhart
84321,41.76695,-111.885084,Logan,UT,Cache
48133,41.790287,-83.504033,Erie,MI,Monroe
6011,41.791776,-72.718832,Bristol,CT,Hartford
49255,41.792652,-84.900917,Montgomery,MI,Branch
84341,41.838005,-111.917217,Logan,UT,Cache
6019,41.842882,-72.899645,Canton,CT,Hartford
44048,41.846175,-80.647299,Kingsville,OH,Ashtabula
68652,41.853086,-98.07996,Petersburg,NE,Boone
18810,41.861751,-76.488418,Athens,PA,Bradford
49270,41.865026,-83.670689,Petersburg,MI,Monroe
84330,41.883058,-112.138837,Plymouth,UT,Box Elder
84333,41.883064,-111.798034,Richmond,UT,Cache
2360,41.886207,-70.638717,Plymouth,MA,Plymouth
16412,41.90425,-80.157715,Edinboro,PA,Erie
49103,41.907363,-86.472582,Berrien Springs,MI,Berrien
16950,41.919341,-77.523033,Westfield,PA,Tioga
16405,41.943966,-79.568294,Columbus,PA,Warren
2361,41.970474,-70.701357,Plymouth,MA,Plymouth
2324,41.973741,-70.976558,Bridgewater,MA,Plymouth
49085,41.977412,-86.533144,Saint Joseph,MI,Berrien
2325,41.98725,-70.972786,Bridgewater,MA,Plymouth
61051,41.991827,-89.764016,Milledgeville,IL,Carroll
49104,42.001551,-86.715294,Berrien Springs,MI,Berrien
16512,42.030201,-80.257855,Erie,PA,Erie
16509,42.048568,-80.027928,Erie,PA,Erie
1521,42.061063,-72.163991,Holland,MA,Hampden
16506,42.064456,-80.165682,Erie,PA,Erie
2359,42.065702,-70.800778,Pembroke,MA,Plymouth
16501,42.087337,-80.087341,Erie,PA,Erie
16508,42.097156,-80.09283,Erie,PA,Erie
16510,42.108655,-79.953504,Erie,PA,Erie
1540,42.109223,-71.855444,Oxford,MA,Worcester
16504,42.109556,-80.050278,Erie,PA,Erie
16502,42.110357,-80.100931,Erie,PA,Erie
16505,42.110857,-80.153383,Erie,PA,Erie
49241,42.111258,-84.601588,Hanover,MI,Jackson
1034,42.112748,-72.952003,Granville,MA,Hampden
49011,42.119031,-85.214348,Athens,MI,Calhoun
2339,42.123534,-70.851048,Hanover,MA,Plymouth
60090,42.124176,-87.933819,Wheeling,IL,Cook
16503,42.126757,-80.061029,Erie,PA,Erie
16507,42.134257,-80.084042,Erie,PA,Erie
97415,42.137789,-124.249196,Brookings,OR,Curry
52309,42.13894,-90.864621,Monmouth,IA,Jackson
97520,42.148098,-122.537356,Ashland,OR,Jackson
1085,42.14869,-72.501887,Westfield,MA,Hampden
16511,42.160153,-79.984376,Erie,PA,Erie
48115,42.160216,-83.911693,Bridgewater,MI,Washtenaw
1086,42.173428,-72.847964,Westfield,MA,Hampden
2021,42.179146,-71.121185,Canton,MA,Norfolk
16444,42.182748,-80.064915,Edinboro,PA,Erie
1254,42.233105,-73.238358,Richmond,MA,Berkshire
2030,42.236114,-71.283072,Dover,MA,Norfolk
48121,42.239933,-83.150823,Dearborn,MI,Wayne
14787,42.253734,-79.484286,Westfield,NY,Chautauqua
48126,42.271811,-83.225877,Dearborn,MI,Wayne
61041,42.274653,-90.295132,Hanover,IL,Jo Daviess
12015,42.28004,-73.837035,Athens,NY,Greene
48188,42.291734,-83.485776,Canton,MI,Wayne
48124,42.299302,-83.242577,Dearborn,MI,Wayne
48120,42.310037,-83.177625,Dearborn,MI,Wayne
48128,42.31927,-83.251428,Dearborn,MI,Wayne
60071,42.328463,-88.429864,Richmond,IL,Mchenry
12407,42.332859,-74.367866,Ashland,NY,Greene
1441,42.364807,-71.896868,Westminster,MA,Worcester
48170,42.366737,-83.489679,Plymouth,MI,Wayne
48187,42.374118,-83.418143,Canton,MI,Wayne
14869,42.377454,-76.77621,Odessa,NY,Schuyler
48175,42.405636,-83.578088,Salem,MI,Washtenaw
14063,42.412217,-79.319254,Fredonia,NY,Chautauqua
13830,42.437881,-75.567327,Oxford,NY,Chenango
1721,42.446396,-71.459405,Ashland,MA,Middlesex
50642,42.44797,-92.817924,Holland,IA,Grundy
1890,42.454545,-71.148779,Winchester,MA,Middlesex
13820,42.461688,-75.096727,Oneonta,NY,Otsego
50614,42.469768,-92.309475,Cedar Falls,IA,Black Hawk
49450,42.483692,-86.06653,Pullman,MI,Allegan
1970,42.512946,-70.904237,Salem,MA,Essex
50613,42.517091,-92.43585,Cedar Falls,IA,Black Hawk
1302,42.522178,-72.624164,Greenfield,MA,Franklin
49070,42.537142,-85.626918,Martin,MI,Allegan
1473,42.549489,-71.913219,Westminster,MA,Worcester
53104,42.553518,-88.028986,Bristol,WI,Kenosha
13832,42.568979,-75.654133,Plymouth,NY,Chenango
53168,42.574598,-88.137535,Salem,WI,Kenosha
1341,42.590824,-72.70976,Conway,MA,Franklin
1301,42.601335,-72.623619,Greenfield,MA,Franklin
1360,42.614152,-72.528209,Northfield,MA,Franklin
53542,42.632325,-89.15942,Hanover,WI,Rock
1936,42.635443,-70.879123,Hamilton,MA,Essex
14080,42.640179,-78.543738,Holland,NY,Erie
48044,42.644211,-82.898513,Macomb,MI,Macomb
48042,42.673476,-82.916262,Macomb,MI,Macomb
12138,42.685947,-73.390627,Petersburg,NY,Rensselaer
49419,42.693859,-85.980959,Hamilton,MI,Allegan
51062,42.70123,-96.50939,Westfield,IA,Plymouth
53536,42.766359,-89.250152,Evansville,WI,Rock
48371,42.772209,-83.339754,Oxford,MI,Oakland
14454,42.783801,-77.777872,Geneseo,NY,Livingston
53190,42.784255,-88.592559,Whitewater,WI,Walworth
53818,42.795971,-90.644975,Platteville,WI,Grant
49423,42.812579,-86.037218,Holland,MI,Ottawa
13346,42.822667,-75.553153,Hamilton,NY,Madison
48062,42.838913,-82.799617,Richmond,MI,Macomb
48370,42.840328,-83.200206,Oxford,MI,Oakland
57069,42.854124,-96.973318,Vermillion,SD,Clay
3079,42.872045,-71.196195,Salem,NH,Rockingham
13313,42.879227,-75.267172,Bridgewater,NY,Oneida
48063,42.889238,-82.667478,Columbus,MI,Saint Clair
3470,42.895797,-72.274928,Winchester,NH,Cheshire
82636,42.899153,-106.175375,Evansville,WY,Natrona
49424,42.924578,-86.121901,Holland,MI,Ottawa
13480,42.926167,-75.360922,Waterville,NY,Oneida
3803,42.92703,-71.444752,Portsmouth,NH,Rockingham
3047,42.929346,-71.859087,Greenfield,NH,Hillsborough
48501,42.965926,-83.780835,Flint,MI,Genesee
48554,42.972244,-83.79463,Flint,MI,Genesee
48553,42.973627,-83.720306,Flint,MI,Genesee
51022,42.974677,-96.086114,Granville,IA,Sioux
48552,42.977895,-83.713074,Flint,MI,Genesee
48551,42.978995,-83.713124,Flint,MI,Genesee
49401,42.979522,-85.93927,Allendale,MI,Ottawa
48507,42.982076,-83.734004,Flint,MI,Genesee
49422,42.985596,-86.444751,Holland,MI,Ottawa
48531,43.002,-83.692507,Flint,MI,Genesee
3802,43.005895,-71.013202,Portsmouth,NH,Rockingham
3801,43.009222,-70.950742,Portsmouth,NH,Rockingham
48503,43.010835,-83.69278,Flint,MI,Genesee
48532,43.011127,-83.803045,Flint,MI,Genesee
48555,43.011277,-83.710756,Flint,MI,Genesee
48502,43.015127,-83.694756,Flint,MI,Genesee
48504,43.020626,-83.697666,Flint,MI,Genesee
48556,43.032677,-83.646255,Flint,MI,Genesee
48550,43.034927,-83.688706,Flint,MI,Genesee
48506,43.065313,-83.631004,Flint,MI,Genesee
48505,43.076926,-83.690207,Flint,MI,Genesee
48557,43.080578,-83.783675,Flint,MI,Genesee
5158,43.082635,-72.474882,Westminster,VT,Windham
57551,43.172158,-101.734068,Martin,SD,Bennett
52170,43.217292,-91.310349,Waterville,IA,Allamakee
12865,43.225966,-73.348736,Salem,NY,Washington
50464,43.234199,-93.082854,Plymouth,IA,Cerro Gordo
3820,43.297309,-70.992042,Dover,NH,Strafford
57013,43.29831,-96.70718,Canton,SD,Lincoln
3821,43.326734,-71.028427,Dover,NH,Strafford
97495,43.333141,-123.325617,Winchester,OR,Douglas
53925,43.3569,-89.12088,Columbus,WI,Columbia
12832,43.369373,-73.331692,Granville,NY,Washington
48724,43.465024,-83.925473,Carrollton,MI,Saginaw
13126,43.465388,-76.342172,Oswego,NY,Oswego
53021,43.477015,-87.961162,Fredonia,WI,Ozaukee
5056,43.526289,-72.724848,Plymouth,VT,Windsor
55922,43.527479,-91.85297,Canton,MN,Fillmore
82513,43.549861,-109.704749,Dubois,WY,Fremont
57319,43.550264,-97.469058,Bridgewater,SD,Mccook
48710,43.556574,-83.994328,University Center,MI,Bay
5034,43.592527,-72.621578,Bridgewater,VT,Windsor
57058,43.639298,-97.343417,Salem,SD,Mccook
56036,43.664991,-93.36173,Glenville,MN,Freeborn
3222,43.70781,-71.72158,Bristol,NH,Grafton
3264,43.710919,-71.694017,Plymouth,NH,Grafton
3217,43.715626,-71.639896,Ashland,NH,Grafton
53952,43.767789,-89.463944,Oxford,WI,Marquette
53073,43.768454,-87.975773,Plymouth,WI,Sheboygan
3818,43.78892,-71.10261,Conway,NH,Carroll
53964,43.848698,-89.478459,Westfield,WI,Marquette
54603,43.853763,-91.246238,La Crosse,WI,La Crosse
54601,43.85456,-91.132072,La Crosse,WI,La Crosse
3755,43.861077,-72.120314,Hanover,NH,Grafton
54602,43.907739,-91.167621,La Crosse,WI,La Crosse
4539,43.928967,-69.598725,Bristol,ME,Lincoln
55929,43.989637,-92.138889,Dover,MN,Olmsted
4857,43.995024,-69.198524,Saint George,ME,Knox
5747,44.0032,-72.817108,Granville,VT,Addison
55987,44.029975,-91.700889,Winona,MN,Winona
56002,44.056047,-94.069828,Mankato,MN,Blue Earth
56001,44.061451,-94.003112,Mankato,MN,Blue Earth
56139,44.09239,-96.188124,Holland,MN,Pipestone
4357,44.108059,-69.827489,Richmond,ME,Sagadahoc
5443,44.157814,-73.071813,Bristol,VT,Addison
83423,44.177432,-112.219898,Dubois,ID,Clark
5663,44.180906,-72.678854,Northfield,VT,Washington
56003,44.217193,-94.094192,Mankato,MN,Nicollet
4270,44.284385,-70.507791,Oxford,ME,Oxford
56096,44.324235,-93.569726,Waterville,MN,Le Sueur
4259,44.349166,-69.870181,Monmouth,ME,Kennebec
56069,44.349609,-93.580277,Montgomery,MN,Le Sueur
57006,44.355091,-96.762102,Brookings,SD,Brookings
57007,44.369696,-96.790705,Brookings,SD,Brookings
55057,44.376816,-93.241838,Northfield,MN,Rice
4221,44.38575,-70.311314,Canton,ME,Oxford
5477,44.387289,-72.953283,Richmond,VT,Chittenden
4237,44.494347,-70.735691,Hanover,ME,Oxford
4903,44.549225,-69.713178,Waterville,ME,Kennebec
4901,44.554321,-69.617809,Waterville,ME,Kennebec
13617,44.574484,-75.059713,Canton,NY,Saint Lawrence
55085,44.674799,-92.968309,Vermillion,MN,Dakota
5492,44.736083,-72.703199,Waterville,VT,Lamoille
4969,44.772503,-69.247539,Plymouth,ME,Penobscot
54022,44.802351,-92.595365,River Falls,WI,Pierce
54720,44.803612,-91.442253,Altoona,WI,Eau Claire
97361,44.808768,-123.326075,Monmouth,OR,Polk
5470,44.824855,-72.895849,Montgomery,VT,Franklin
97306,44.856786,-123.088297,Salem,OR,Marion
54751,44.867809,-91.943198,Menomonie,WI,Dunn
5874,44.869117,-72.450485,Westfield,VT,Orleans
97302,44.890486,-123.082192,Salem,OR,Marion
97301,44.90472,-122.921721,Salem,OR,Marion
4912,44.9227,-69.67668,Athens,ME,Somerset
97310,44.927141,-122.986105,Salem,OR,Marion
4666,44.930092,-67.156533,Pembroke,ME,Washington
97312,44.936357,-123.038116,Salem,OR,Marion
97311,44.943841,-123.028607,Salem,OR,Marion
97314,44.965541,-123.006606,Salem,OR,Marion
54411,44.982348,-90.007765,Athens,WI,Marathon
97308,44.984465,-122.457024,Salem,OR,Marion
97313,44.984941,-122.998756,Salem,OR,Marion
97303,44.992731,-123.01672,Salem,OR,Marion
97304,44.99351,-123.107442,Salem,OR,Polk
97305,44.996133,-122.91239,Salem,OR,Marion
4648,45.002969,-67.495548,Jonesboro,ME,Washington
55595,45.015914,-93.47188,Loretto,MN,Hennepin
57442,45.033588,-100.035273,Gettysburg,SD,Potter
4422,45.066999,-69.040695,Charleston,ME,Penobscot
55357,45.100098,-93.657256,Loretto,MN,Hennepin
55341,45.160196,-93.673418,Hanover,MN,Wright
97850,45.29535,-118.164822,La Grande,OR,Union
57219,45.319218,-97.637812,Bristol,SD,Day
56276,45.381402,-96.469532,Odessa,MN,Big Stone
49722,45.423616,-84.852401,Conway,MI,Emmet
56368,45.460536,-94.536053,Richmond,MN,Stearns
98683,45.603216,-122.513318,Vancouver,WA,Clark
59003,45.605673,-106.278272,Ashland,MT,Rosebud
56374,45.614235,-94.350962,Saint Joseph,MN,Stearns
98664,45.620669,-122.576413,Vancouver,WA,Clark
98684,45.6359,-122.515538,Vancouver,WA,Clark
98663,45.650488,-122.663608,Vancouver,WA,Clark
59019,45.657453,-109.206617,Columbus,MT,Stillwater
98682,45.678782,-122.478845,Vancouver,WA,Clark
98665,45.689187,-122.661608,Vancouver,WA,Clark
98662,45.691419,-122.580457,Vancouver,WA,Clark
98686,45.705566,-122.572193,Vancouver,WA,Clark
98660,45.74327,-122.713366,Vancouver,WA,Clark
98685,45.754637,-122.696001,Vancouver,WA,Clark
98661,45.769989,-122.643658,Vancouver,WA,Clark
59741,45.771228,-111.374118,Manhattan,MT,Gallatin
98666,45.801586,-122.520347,Vancouver,WA,Clark
49852,45.827514,-87.776381,Loretto,MI,Dickinson
99346,45.930067,-119.402276,Plymouth,WA,Benton
97138,45.97677,-123.857394,Seaside,OR,Clatsop
56326,45.984659,-95.670545,Evansville,MN,Douglas
59004,46.017965,-106.99199,Ashland,MT,Rosebud
59840,46.234189,-114.165774,Hamilton,MT,Ravalli
83555,46.24243,-116.544158,Winchester,ID,Lewis
59638,46.367883,-112.023155,Jefferson City,MT,Jefferson
58440,46.37014,-99.173337,Fredonia,ND,Logan
4735,46.516166,-68.886826,Bridgewater,ME,Aroostook
54806,46.558577,-90.738773,Ashland,WI,Ashland
4787,46.594523,-67.930172,Westfield,ME,Aroostook
55808,46.683891,-92.242241,Duluth,MN,Saint Louis
55807,46.735978,-92.17764,Duluth,MN,Saint Louis
55810,46.76062,-92.266038,Duluth,MN,Saint Louis
55806,46.774939,-92.133189,Duluth,MN,Saint Louis
55805,46.800389,-92.094589,Duluth,MN,Saint Louis
55812,46.810788,-92.072288,Duluth,MN,Saint Louis
59803,46.811758,-113.987645,Missoula,MT,Missoula
55811,46.814712,-92.199825,Duluth,MN,Saint Louis
99163,46.82748,-117.317741,Pullman,WA,Whitman
99164,46.838747,-117.644337,Pullman,WA,Whitman
59804,46.846708,-114.169784,Missoula,MT,Missoula
59801,46.853606,-113.909123,Missoula,MT,Missoula
55804,46.886239,-92.005488,Duluth,MN,Saint Louis
55802,46.904912,-92.039109,Duluth,MN,Saint Louis
59807,46.910342,-113.958686,Missoula,MT,Missoula
4732,46.975725,-68.39816,Ashland,ME,Aroostook
59808,46.977603,-114.061856,Missoula,MT,Missoula
59802,46.989689,-113.954788,Missoula,MT,Missoula
55801,47.005566,-92.001934,Duluth,MN,Saint Louis
98348,47.066193,-122.113223,La Grande,WA,Pierce
55717,47.0686,-92.442794,Canyon,MN,Saint Louis
58029,47.115505,-97.377138,Erie,ND,Cass
59806,47.116034,-114.049824,Missoula,MT,Missoula
98433,47.126735,-122.491749,Tacoma,WA,Pierce
98446,47.128485,-122.373631,Tacoma,WA,Pierce
98445,47.129145,-122.409355,Tacoma,WA,Pierce
98444,47.146371,-122.457172,Tacoma,WA,Pierce
98409,47.205777,-122.321095,Tacoma,WA,Pierce
98408,47.206871,-122.448534,Tacoma,WA,Pierce
98443,47.207371,-122.373466,Tacoma,WA,Pierce
98404,47.209131,-122.397929,Tacoma,WA,Pierce
55803,47.217311,-92.1184,Duluth,MN,Saint Louis
98424,47.232513,-122.359432,Tacoma,WA,Pierce
98466,47.243075,-122.53936,Tacoma,WA,Pierce
98405,47.247871,-122.472793,Tacoma,WA,Pierce
98401,47.253671,-122.444335,Tacoma,WA,Pierce
98421,47.254021,-122.400133,Tacoma,WA,Pierce
98465,47.254749,-122.530336,Tacoma,WA,Pierce
98406,47.259216,-122.509235,Tacoma,WA,Pierce
98402,47.261502,-122.463308,Tacoma,WA,Pierce
98416,47.264577,-122.482076,Tacoma,WA,Pierce
98403,47.265371,-122.457087,Tacoma,WA,Pierce
98422,47.283379,-122.388781,Tacoma,WA,Pierce
98407,47.287606,-122.500486,Tacoma,WA,Pierce
98442,47.308061,-122.418495,Tacoma,WA,Pierce
99159,47.344402,-118.658816,Odessa,WA,Lincoln
99004,47.6067,-117.500285,Cheney,WA,Spokane
55814,47.640367,-92.442797,Duluth,MN,Saint Louis
98858,47.701979,-119.86123,Waterville,WA,Douglas
58758,47.717951,-100.21234,Martin,ND,Sheridan
58203,47.892243,-97.301297,Grand Forks,ND,Grand Forks
58201,47.9041,-97.431501,Grand Forks,ND,Grand Forks
58202,47.933481,-97.394446,Grand Forks,ND,Grand Forks
58272,48.00598,-98.000193,Petersburg,ND,Nelson
59544,48.224749,-108.035444,Whitewater,MT,Phillips
58741,48.305738,-100.67856,Granville,ND,Mchenry
98238,48.340002,-122.345571,Conway,WA,Skagit
59527,48.360516,-108.89392,Hays,MT,Blaine
83825,48.36875,-116.545493,Dover,ID,Bonner
98255,48.525461,-121.9887,Hamilton,WA,Skagit
58238,48.778717,-97.449975,Hamilton,ND,Pembina
58367,48.826826,-99.786546,Rolla,ND,Rolette
58727,48.852362,-102.592042,Columbus,ND,Burke
99833,56.767056,-132.93195,Petersburg,AK,Wrangell Petersburg
